IRIDIUM 33 DEB          
1 35480U 97051QA  26051.57138538  .00002152  00000+0  54808-3 0  9993
2 35480  86.3611 354.6318 0011597 226.7580 133.2657 14.50192256880435
IRIDIUM 33 DEB          
1 35484U 97051QE  26050.19184175  .00037506  00000+0  25740-2 0  9995
2 35484  86.3587 320.5585 0011587 239.1626 120.8470 15.05777687630433
IRIDIUM 33 DEB          
1 35488U 97051QJ  26049.04201550  .00008223  00000+0  95780-3 0  9994
2 35488  86.3202 269.8026 0026128 156.2316 204.0122 14.84891794892642
IRIDIUM 33 DEB          
1 35616U 97051QN  26047.03773660  .00014558  00000+0  17372-2 0  9998
2 35616  86.3558 315.9169 0008466 329.5696  30.5035 14.84146938885427
IRIDIUM 33 DEB          
1 35618U 97051QQ  26049.48343151  .00001799  00000+0  43165-3 0  9992
2 35618  86.3437 323.8830 0029435 145.8254 214.4854 14.52663437663773
IRIDIUM 33 DEB          
1 35620U 97051QS  26052.33296302  .00009350  00000+0  26520-2 0  9994
2 35620  86.3927 187.6493 0132348  25.5143 335.2509 14.40333172609811
IRIDIUM 33 DEB          
1 35622U 97051QU  26052.44994612  .00045327  00000+0  25793-2 0  9992
2 35622  86.1940 228.4971 0006431   3.8670  25.8938 15.12640626884265
IRIDIUM 33 DEB          
1 35628U 97051RA  26052.52424234  .00006866  00000+0  11671-2 0  9990
2 35628  86.3611 337.4837 0014241  82.8721 277.4112 14.68947823874854
IRIDIUM 33 DEB          
1 35631U 97051RD  26052.80471379  .00001253  00000+0  33481-3 0  9996
2 35631  86.3706 350.3744 0014720 242.5981 138.7832 14.47581615882250
IRIDIUM 33 DEB          
1 35680U 97051RJ  26038.12993927  .00007558  00000+0  30328-2 0  9997
2 35680  86.1049 356.5378 0154014  98.7521 274.1156 14.21837022615026
IRIDIUM 33 DEB          
1 35744U 97051RX  26052.38286064  .00005457  00000+0  85950-3 0  9997
2 35744  86.3266 293.4953 0020033 321.0388  38.9384 14.72187038883706
IRIDIUM 33 DEB          
1 35797U 97051SF  26051.97858243  .00010159  00000+0  11801-2 0  9991
2 35797  86.3338 297.6462 0009429 282.8589  77.1582 14.85241442883820
IRIDIUM 33 DEB          
1 35806U 97051SQ  26046.59386738  .00005712  00000+0  12318-2 0  9992
2 35806  86.3479 352.0577 0012128 203.2585 156.8077 14.58225147872694
IRIDIUM 33 DEB          
1 35809U 97051ST  26049.42535645  .00008089  00000+0  11282-2 0  9992
2 35809  86.3275 304.4902 0013657  20.8557 339.3216 14.77537141878065
IRIDIUM 33 DEB          
1 35846U 97051SW  26052.89969268  .00001951  00000+0  57068-3 0  9994
2 35846  86.3763  28.4510 0015985 306.0193  53.9526 14.43478297723552
IRIDIUM 33 DEB          
1 35848U 97051SY  26052.54159403  .00012038  00000+0  15585-2 0  9995
2 35848  86.3920 344.2380 0007137 345.0118  15.0890 14.80757478677376
IRIDIUM 33 DEB          
1 35850U 97051TA  26051.45648412  .00008258  00000+0  10644-2 0  9990
2 35850  86.3491 312.4901 0008959 334.7280  25.3502 14.80913532723883
IRIDIUM 33 DEB          
1 35915U 97051TY  26049.00948942  .00011613  00000+0  14212-2 0  9995
2 35915  86.3449 312.1726 0010943 340.0191  20.0602 14.83080632 90820
IRIDIUM 33 DEB          
1 35918U 97051UB  26052.25439905  .00004001  00000+0  98395-3 0  9991
2 35918  86.3992  45.5144 0023924 299.4683 117.9708 14.51923559862305
IRIDIUM 33 DEB          
1 35929U 97051UN  26052.36197976  .00037145  00000+0  23703-2 0  9999
2 35929  86.3400 279.0153 0015058 120.8812 239.3908 15.08432495888424
IRIDIUM 33 DEB          
1 36011U 97051US  26052.61370459  .00001574  00000+0  47705-3 0  9995
2 36011  86.3452   4.9765 0018745 355.6884 130.3263 14.41609013655616
IRIDIUM 33 DEB          
1 36012U 97051UT  26050.58558532  .00006510  00000+0  23846-2 0  9994
2 36012  86.4432 279.7450 0217534  42.1016 319.6655 14.20427146664610
IRIDIUM 33 DEB          
1 36028U 97051VK  26049.34502741  .00018186  00000+0  14812-2 0  9999
2 36028  86.3171 274.8047 0016101 155.8717 204.3272 14.99308306881361
IRIDIUM 33 DEB          
1 36080U 97051VM  26039.56070114  .00002624  00000+0  71624-3 0  9999
2 36080  86.3256 342.8023 0016167 338.1126  21.9384 14.46938544482500
IRIDIUM 33 DEB          
1 36083U 97051VQ  26051.60327860  .00001913  00000+0  55741-3 0  9996
2 36083  86.3476   4.0679 0026592   1.0136 359.1114 14.43531796864574
IRIDIUM 33 DEB          
1 36390U 97051VU  26048.88978671  .00004213  00000+0  62425-3 0  9998
2 36390  86.2865 268.5875 0028178 297.8986  61.9379 14.74635634672513
IRIDIUM 33 DEB          
1 36483U 97051VZ  26045.21892565  .00002149  00000+0  59682-3 0  9999
2 36483  86.3795  25.2991 0006825 285.9146  74.1304 14.46088449660636
IRIDIUM 33 DEB          
1 36490U 97051WG  26052.09144873  .00010642  00000+0  14590-2 0  9998
2 36490  86.3679 338.6870 0003700 116.5616 243.5983 14.78349467875236
IRIDIUM 33 DEB          
1 36493U 97051WK  26052.51601858  .00006707  00000+0  12066-2 0  9992
2 36493  86.3609 340.2154 0012658 101.4218 258.8418 14.66450116755554
IRIDIUM 33 DEB          
1 37548U 97051XH  26034.21940447  .00005192  00000+0  12804-2 0  9998
2 37548  86.3516  20.5130 0026097  22.8260 337.4100 14.51800482662930
IRIDIUM 33 DEB          
1 37550U 97051XK  26052.58133196  .00006915  00000+0  11887-2 0  9990
2 37550  86.3797 352.4488 0001433 140.1188 220.0132 14.68524900873726
IRIDIUM 33 DEB          
1 37562U 97051XX  26046.21976944  .00006368  00000+0  13997-2 0  9998
2 37562  86.3758  15.4617 0021414 248.2975 176.6493 14.57269436872678
IRIDIUM 33 DEB          
1 37565U 97051YA  26051.50840894  .00001761  00000+0  43140-3 0  9999
2 37565  86.3540 339.1878 0011402 198.9023 161.1761 14.51933068668499
IRIDIUM 33 DEB          
1 38017U 97051YD  26052.66181003  .00010739  00000+0  25384-2 0  9994
2 38017  86.3372 135.3265 0090307 224.9762 134.4106 14.51564236624307
IRIDIUM 33 DEB          
1 38022U 97051YJ  26048.55321746  .00003424  00000+0  10283-2 0  9998
2 38022  86.2737 347.1734 0043236 184.2854 175.7982 14.41931114701566
IRIDIUM 33 DEB          
1 38028U 97051YQ  26049.06838849  .00001057  00000+0  28736-3 0  9991
2 38028  86.3240 331.0070 0025844 256.6197 103.2124 14.46452296664685
IRIDIUM 33 DEB          
1 38228U 97051ZC  26052.66300063  .00000714  00000+0  27762-3 0  9992
2 38228  86.2966  18.3047 0063219 324.5284 158.5328 14.27418391857938
IRIDIUM 33 DEB          
1 38241U 97051ZR  26050.06251874  .00002482  00000+0  56650-3 0  9996
2 38241  86.3256 320.4594 0003165 146.1941 213.9469 14.55439009611943
IRIDIUM 33 DEB          
1 38474U 97051AAB 26040.58333052  .00002912  00000+0  72799-3 0  9999
2 38474  86.3461 344.4190 0023085 249.6478 110.2247 14.51068145661712
IRIDIUM 33 DEB          
1 39777U 97051AAJ 26052.66570962  .00010502  00000+0  22092-2 0  9995
2 39777  85.9626 140.5806 0055804 305.3178  54.2820 14.58472792612182
IRIDIUM 33 DEB          
1 39778U 97051AAK 26047.33554167  .00004783  00000+0  11081-2 0  9993
2 39778  86.3797  14.7286 0008003 144.9295 215.2441 14.54909712616463
IRIDIUM 33 DEB          
1 39781U 97051AAN 26032.33613083  .00009026  00000+0  35030-2 0  9999
2 39781  86.3718 237.1194 0171293 110.1022  68.5667 14.22082273 88252
IRIDIUM 33 DEB          
1 40996U 97051ABJ 26052.22309457  .00043822  00000+0  32385-2 0  9998
2 40996  86.3484 328.3176 0009804 121.0474  30.6566 15.02986350635440
IRIDIUM 33 DEB          
1 40998U 97051ABL 26050.26004927  .00001703  00000+0  47878-3 0  9992
2 40998  86.3836  24.3659 0006271 193.4362 232.4286 14.45383633 76717
IRIDIUM 33 DEB          
1 46435U 97051ABN 26035.13540543  .00025972  00000+0  70928-2 0  9997
2 46435  86.2792 170.9115 0198271 102.1484  74.9261 14.36167469 86819
IRIDIUM 33 DEB          
1 46734U 97051ABR 26032.14744623  .00002827  00000+0  84278-3 0  9990
2 46734  86.2663 340.7289 0039381 162.3242 255.9620 14.42316373637373
IRIDIUM 33 DEB          
1 46965U 97051ABX 26047.71386540  .00003337  00000+0  67529-3 0  9992
2 46965  86.3369 311.4371 0021301  98.9562 290.7774 14.60917006632318
IRIDIUM 33 DEB          
1 46971U 97051ACD 26046.17100049  .00032805  00000+0  24317-2 0  9995
2 46971  86.3384 302.6959 0018324 121.5358  29.3036 15.02823090651968
IRIDIUM 33 DEB          
1 46972U 97051ACE 26035.22156457  .00002948  00000+0  74102-3 0  9997
2 46972  86.3887  16.3705 0007168 296.9315 122.4772 14.50973059623480
IRIDIUM 33 DEB          
1 46974U 97051ACG 26050.81448890  .00008905  00000+0  23709-2 0  9991
2 46974  86.2960  75.0684 0088184 318.5746  40.8791 14.46114811585060
IRIDIUM 33 DEB          
1 46979U 97051ACM 26024.72896699  .00075585  00000+0  70538-2 0  9991
2 46979  86.3324  28.5188 0029146  75.5025 284.9433 14.93512669360694
